[{"OBJECT_NAME":"ONEWEB-0358","OBJECT_ID":"2021-090F","EPOCH":"2026-03-03T02:54:06.320736","MEAN_MOTION":13.20772268,"ECCENTRICITY":0.0001593,"INCLINATION":87.9183,"RA_OF_ASC_NODE":295.6139,"ARG_OF_PERICENTER":78.7551,"MEAN_ANOMALY":281.3761,"EPHEMERIS_TYPE":0,"CLASSIFICATION_TYPE":"U","NORAD_CAT_ID":49284,"ELEMENT_SET_NO":999,"REV_AT_EPOCH":21655,"BSTAR":0.00020143,"MEAN_MOTION_DOT":9.5e-7,"MEAN_MOTION_DDOT":0},{"OBJECT_NAME":"ONEWEB-0359","OBJECT_ID":"2021-090G","EPOCH":"2026-03-03T02:49:33.181824","MEAN_MOTION":13.20770066,"ECCENTRICITY":0.0001801,"INCLINATION":87.9184,"RA_OF_ASC_NODE":295.6114,"ARG_OF_PERICENTER":76.2887,"MEAN_ANOMALY":283.8447,"EPHEMERIS_TYPE":0,"CLASSIFICATION_TYPE":"U","NORAD_CAT_ID":49285,"ELEMENT_SET_NO":999,"REV_AT_EPOCH":21653,"BSTAR":0.00016315,"MEAN_MOTION_DOT":7.9e-7,"MEAN_MOTION_DDOT":0},{"OBJECT_NAME":"ONEWEB-0360","OBJECT_ID":"2021-090H","EPOCH":"2026-03-03T02:35:54.170304","MEAN_MOTION":13.20773288,"ECCENTRICITY":0.0001735,"INCLINATION":87.9182,"RA_OF_ASC_NODE":295.6204,"ARG_OF_PERICENTER":80.2314,"MEAN_ANOMALY":279.9015,"EPHEMERIS_TYPE":0,"CLASSIFICATION_TYPE":"U","NORAD_CAT_ID":49286,"ELEMENT_SET_NO":999,"REV_AT_EPOCH":21584,"BSTAR":0.00016255,"MEAN_MOTION_DOT":7.9e-7,"MEAN_MOTION_DDOT":0},{"OBJECT_NAME":"ONEWEB-0361","OBJECT_ID":"2021-090J","EPOCH":"2026-03-03T03:57:43.725888","MEAN_MOTION":13.20772916,"ECCENTRICITY":0.0001466,"INCLINATION":87.9184,"RA_OF_ASC_NODE":295.6062,"ARG_OF_PERICENTER":79.3908,"MEAN_ANOMALY":280.739,"EPHEMERIS_TYPE":0,"CLASSIFICATION_TYPE":"U","NORAD_CAT_ID":49287,"ELEMENT_SET_NO":999,"REV_AT_EPOCH":21630,"BSTAR":5.8432e-6,"MEAN_MOTION_DOT":1.5e-7,"MEAN_MOTION_DDOT":0},{"OBJECT_NAME":"ONEWEB-0362","OBJECT_ID":"2021-090K","EPOCH":"2026-03-03T02:37:43.739328","MEAN_MOTION":13.1972586,"ECCENTRICITY":0.0001917,"INCLINATION":87.9237,"RA_OF_ASC_NODE":326.1105,"ARG_OF_PERICENTER":83.4096,"MEAN_ANOMALY":276.7255,"EPHEMERIS_TYPE":0,"CLASSIFICATION_TYPE":"U","NORAD_CAT_ID":49288,"ELEMENT_SET_NO":999,"REV_AT_EPOCH":21292,"BSTAR":0.00010498,"MEAN_MOTION_DOT":5.5e-7,"MEAN_MOTION_DDOT":0},{"OBJECT_NAME":"ONEWEB-0363","OBJECT_ID":"2021-090L","EPOCH":"2026-03-03T02:31:23.257056","MEAN_MOTION":13.20773612,"ECCENTRICITY":0.000137,"INCLINATION":87.9183,"RA_OF_ASC_NODE":295.6188,"ARG_OF_PERICENTER":73.0283,"MEAN_ANOMALY":287.1,"EPHEMERIS_TYPE":0,"CLASSIFICATION_TYPE":"U","NORAD_CAT_ID":49289,"ELEMENT_SET_NO":999,"REV_AT_EPOCH":21630,"BSTAR":8.8872e-5,"MEAN_MOTION_DOT":4.9e-7,"MEAN_MOTION_DDOT":0},{"OBJECT_NAME":"ONEWEB-0364","OBJECT_ID":"2021-090M","EPOCH":"2026-03-03T03:25:55.279488","MEAN_MOTION":13.20772012,"ECCENTRICITY":0.0001536,"INCLINATION":87.917,"RA_OF_ASC_NODE":295.6267,"ARG_OF_PERICENTER":80.1107,"MEAN_ANOMALY":280.0199,"EPHEMERIS_TYPE":0,"CLASSIFICATION_TYPE":"U","NORAD_CAT_ID":49290,"ELEMENT_SET_NO":999,"REV_AT_EPOCH":21744,"BSTAR":0.00023411,"MEAN_MOTION_DOT":1.08e-6,"MEAN_MOTION_DDOT":0},{"OBJECT_NAME":"ONEWEB-0365","OBJECT_ID":"2021-090N","EPOCH":"2026-03-03T02:51:21.684672","MEAN_MOTION":13.19723318,"ECCENTRICITY":0.0001756,"INCLINATION":87.925,"RA_OF_ASC_NODE":326.0872,"ARG_OF_PERICENTER":82.9319,"MEAN_ANOMALY":277.2013,"EPHEMERIS_TYPE":0,"CLASSIFICATION_TYPE":"U","NORAD_CAT_ID":49291,"ELEMENT_SET_NO":999,"REV_AT_EPOCH":21243,"BSTAR":0.00016289,"MEAN_MOTION_DOT":7.8e-7,"MEAN_MOTION_DDOT":0},{"OBJECT_NAME":"ONEWEB-0366","OBJECT_ID":"2021-090P","EPOCH":"2026-03-03T02:23:02.681376","MEAN_MOTION":13.14502117,"ECCENTRICITY":0.0001643,"INCLINATION":87.8991,"RA_OF_ASC_NODE":310.8789,"ARG_OF_PERICENTER":78.4474,"MEAN_ANOMALY":281.684,"EPHEMERIS_TYPE":0,"CLASSIFICATION_TYPE":"U","NORAD_CAT_ID":49292,"ELEMENT_SET_NO":999,"REV_AT_EPOCH":21362,"BSTAR":-0.00047255,"MEAN_MOTION_DOT":-1.62e-6,"MEAN_MOTION_DDOT":0},{"OBJECT_NAME":"ONEWEB-0367","OBJECT_ID":"2021-090Q","EPOCH":"2026-03-03T02:29:05.506080","MEAN_MOTION":13.20773012,"ECCENTRICITY":0.000176,"INCLINATION":87.9185,"RA_OF_ASC_NODE":295.6192,"ARG_OF_PERICENTER":87.1594,"MEAN_ANOMALY":272.974,"EPHEMERIS_TYPE":0,"CLASSIFICATION_TYPE":"U","NORAD_CAT_ID":49293,"ELEMENT_SET_NO":999,"REV_AT_EPOCH":21582,"BSTAR":0.00010588,"MEAN_MOTION_DOT":5.6e-7,"MEAN_MOTION_DDOT":0},{"OBJECT_NAME":"ONEWEB-0368","OBJECT_ID":"2021-090R","EPOCH":"2026-03-03T03:39:32.714208","MEAN_MOTION":13.20772678,"ECCENTRICITY":8.81e-5,"INCLINATION":87.9174,"RA_OF_ASC_NODE":295.6318,"ARG_OF_PERICENTER":98.6402,"MEAN_ANOMALY":261.4831,"EPHEMERIS_TYPE":0,"CLASSIFICATION_TYPE":"U","NORAD_CAT_ID":49294,"ELEMENT_SET_NO":999,"REV_AT_EPOCH":21698,"BSTAR":1.4136e-5,"MEAN_MOTION_DOT":1.9e-7,"MEAN_MOTION_DDOT":0},{"OBJECT_NAME":"ONEWEB-0369","OBJECT_ID":"2021-090S","EPOCH":"2026-03-03T02:44:33.053280","MEAN_MOTION":13.19726822,"ECCENTRICITY":0.0001652,"INCLINATION":87.924,"RA_OF_ASC_NODE":326.1068,"ARG_OF_PERICENTER":80.0925,"MEAN_ANOMALY":280.0395,"EPHEMERIS_TYPE":0,"CLASSIFICATION_TYPE":"U","NORAD_CAT_ID":49295,"ELEMENT_SET_NO":999,"REV_AT_EPOCH":21242,"BSTAR":0.0004328,"MEAN_MOTION_DOT":1.86e-6,"MEAN_MOTION_DDOT":0},{"OBJECT_NAME":"ONEWEB-0370","OBJECT_ID":"2021-090T","EPOCH":"2026-03-03T02:42:44.489088","MEAN_MOTION":13.20771935,"ECCENTRICITY":0.0001908,"INCLINATION":87.9181,"RA_OF_ASC_NODE":295.6186,"ARG_OF_PERICENTER":82.488,"MEAN_ANOMALY":277.647,"EPHEMERIS_TYPE":0,"CLASSIFICATION_TYPE":"U","NORAD_CAT_ID":49296,"ELEMENT_SET_NO":999,"REV_AT_EPOCH":21586,"BSTAR":0.00016205,"MEAN_MOTION_DOT":7.9e-7,"MEAN_MOTION_DDOT":0},{"OBJECT_NAME":"ONEWEB-0371","OBJECT_ID":"2021-090U","EPOCH":"2026-03-03T02:55:55.568352","MEAN_MOTION":13.19725325,"ECCENTRICITY":0.0001795,"INCLINATION":87.9243,"RA_OF_ASC_NODE":326.0941,"ARG_OF_PERICENTER":80.8171,"MEAN_ANOMALY":279.3164,"EPHEMERIS_TYPE":0,"CLASSIFICATION_TYPE":"U","NORAD_CAT_ID":49297,"ELEMENT_SET_NO":999,"REV_AT_EPOCH":21246,"BSTAR":4.8665e-5,"MEAN_MOTION_DOT":3.2e-7,"MEAN_MOTION_DDOT":0},{"OBJECT_NAME":"ONEWEB-0372","OBJECT_ID":"2021-090V","EPOCH":"2026-03-03T02:26:38.364288","MEAN_MOTION":13.20771595,"ECCENTRICITY":0.000157,"INCLINATION":87.9184,"RA_OF_ASC_NODE":295.6212,"ARG_OF_PERICENTER":88.4582,"MEAN_ANOMALY":271.6731,"EPHEMERIS_TYPE":0,"CLASSIFICATION_TYPE":"U","NORAD_CAT_ID":49298,"ELEMENT_SET_NO":999,"REV_AT_EPOCH":21583,"BSTAR":8.9501e-5,"MEAN_MOTION_DOT":4.9e-7,"MEAN_MOTION_DDOT":0},{"OBJECT_NAME":"ONEWEB-0373","OBJECT_ID":"2021-090W","EPOCH":"2026-03-03T03:05:27.000672","MEAN_MOTION":13.20769516,"ECCENTRICITY":0.0001658,"INCLINATION":87.9173,"RA_OF_ASC_NODE":295.622,"ARG_OF_PERICENTER":79.8205,"MEAN_ANOMALY":280.3115,"EPHEMERIS_TYPE":0,"CLASSIFICATION_TYPE":"U","NORAD_CAT_ID":49299,"ELEMENT_SET_NO":999,"REV_AT_EPOCH":21702,"BSTAR":0.00017969,"MEAN_MOTION_DOT":8.6e-7,"MEAN_MOTION_DDOT":0},{"OBJECT_NAME":"ONEWEB-0374","OBJECT_ID":"2021-090X","EPOCH":"2026-03-03T03:54:22.908096","MEAN_MOTION":13.14501466,"ECCENTRICITY":0.0001218,"INCLINATION":87.8999,"RA_OF_ASC_NODE":310.8499,"ARG_OF_PERICENTER":64.6346,"MEAN_ANOMALY":295.491,"EPHEMERIS_TYPE":0,"CLASSIFICATION_TYPE":"U","NORAD_CAT_ID":49300,"ELEMENT_SET_NO":999,"REV_AT_EPOCH":21363,"BSTAR":-9.3552e-5,"MEAN_MOTION_DOT":-2.2e-7,"MEAN_MOTION_DDOT":0}]
