ONEWEB-0358             
1 49284U 21090F   26062.12090649  .00000095  00000+0  20143-3 0  9992
2 49284  87.9183 295.6139 0001593  78.7551 281.3761 13.20772268216556
ONEWEB-0359             
1 49285U 21090G   26062.11774516  .00000079  00000+0  16315-3 0  9992
2 49285  87.9184 295.6114 0001801  76.2887 283.8447 13.20770066216538
ONEWEB-0360             
1 49286U 21090H   26062.10826586  .00000079  00000+0  16255-3 0  9990
2 49286  87.9182 295.6204 0001735  80.2314 279.9015 13.20773288215842
ONEWEB-0361             
1 49287U 21090J   26062.16508942  .00000015  00000+0  58432-5 0  9995
2 49287  87.9184 295.6062 0001466  79.3908 280.7390 13.20772916216301
ONEWEB-0362             
1 49288U 21090K   26062.10953402  .00000055  00000+0  10498-3 0  9997
2 49288  87.9237 326.1105 0001917  83.4096 276.7255 13.19725860212927
ONEWEB-0363             
1 49289U 21090L   26062.10513029  .00000049  00000+0  88872-4 0  9990
2 49289  87.9183 295.6188 0001370  73.0283 287.1000 13.20773612216305
ONEWEB-0364             
1 49290U 21090M   26062.14300092  .00000108  00000+0  23411-3 0  9993
2 49290  87.9170 295.6267 0001536  80.1107 280.0199 13.20772012217449
ONEWEB-0365             
1 49291U 21090N   26062.11900098  .00000078  00000+0  16289-3 0  9994
2 49291  87.9250 326.0872 0001756  82.9319 277.2013 13.19723318212439
ONEWEB-0366             
1 49292U 21090P   26062.09933659 -.00000162  00000+0 -47255-3 0  9994
2 49292  87.8991 310.8789 0001643  78.4474 281.6840 13.14502117213622
ONEWEB-0367             
1 49293U 21090Q   26062.10353595  .00000056  00000+0  10588-3 0  9991
2 49293  87.9185 295.6192 0001760  87.1594 272.9740 13.20773012215824
ONEWEB-0368             
1 49294U 21090R   26062.15246197  .00000019  00000+0  14136-4 0  9999
2 49294  87.9174 295.6318 0000881  98.6402 261.4831 13.20772678216980
ONEWEB-0369             
1 49295U 21090S   26062.11427145  .00000186  00000+0  43280-3 0  9996
2 49295  87.9240 326.1068 0001652  80.0925 280.0395 13.19726822212424
ONEWEB-0370             
1 49296U 21090T   26062.11301492  .00000079  00000+0  16205-3 0  9991
2 49296  87.9181 295.6186 0001908  82.4880 277.6470 13.20771935215864
ONEWEB-0371             
1 49297U 21090U   26062.12217093  .00000032  00000+0  48665-4 0  9991
2 49297  87.9243 326.0941 0001795  80.8171 279.3164 13.19725325212463
ONEWEB-0372             
1 49298U 21090V   26062.10183292  .00000049  00000+0  89501-4 0  9995
2 49298  87.9184 295.6212 0001570  88.4582 271.6731 13.20771595215832
ONEWEB-0373             
1 49299U 21090W   26062.12878473  .00000086  00000+0  17969-3 0  9999
2 49299  87.9173 295.6220 0001658  79.8205 280.3115 13.20769516217029
ONEWEB-0374             
1 49300U 21090X   26062.16276514 -.00000022  00000+0 -93552-4 0  9999
2 49300  87.8999 310.8499 0001218  64.6346 295.4910 13.14501466213639
